SAUDISAT 1C             
1 27607U 02058C   23326.47198716  .00002050  00000+0  29739-3 0  9995
2 27607  64.5522 139.4595 0050910 189.2623 170.7547 14.77930789125824
SAUDISAT 2              
1 28371U 04025F   23326.48142751  .00000630  00000+0  15642-3 0  9999
2 28371  98.4560 291.7248 0024219 298.7844  61.0920 14.55153650 29338
SAUDISAT 3              
1 31118U 07012B   23326.29186793  .00000623  00000+0  11220-3 0  9994
2 31118  98.0321 267.8025 0014428 336.9735  23.0823 14.69901246889942
PISAT                   
1 41784U 16059B   23325.56881835  .00001142  00000+0  21975-3 0  9998
2 41784  97.8550 352.0135 0030018 317.9824  41.9078 14.65153674382100
FLYING LAPTOP           
1 42831U 17042G   23326.15020573  .00003214  00000+0  30747-3 0  9994
2 42831  97.3823 154.3931 0014616  59.4745 300.7917 14.93792322346068
SALSAT                  
1 46495U 20068K   23326.37954753  .00007277  00000+0  45450-3 0  9996
2 46495  97.7893 276.4079 0013292 308.1098  51.8932 15.09713928172928
